NORAD_CAT_ID,OBJECT_NAME,OBJECT_TYPE,EPOCH,MEAN_MOTION,ECCENTRICITY,INCLINATION,RA_OF_ASC_NODE,ARG_OF_PERICENTER,MEAN_ANOMALY,BSTAR,MEAN_MOTION_DOT,MEAN_MOTION_DDOT,TLE_LINE0,TLE_LINE1,TLE_LINE2,SEMIMAJOR_AXIS,PERIOD,APOGEE,PERIGEE,DECAYED
55420.0,STARLINK-5604,PAYLOAD,2023-11-17 13:08:02,14.98326214,0.0002761,70.0006,10.3439,269.9209,90.1634,6.8882e-06,-1.1e-07,0.0,0 STARLINK-5604,1 55420U 23014AF  23321.54724707 -.00000011  00000-0  68882-5 0  9993,2 55420  70.0006  10.3439 0002761 269.9209  90.1634 14.98326214 46254,6950.205,96.107,573.989,570.151,0.0
55420.0,STARLINK-5604,PAYLOAD,2023-11-17 21:08:42,14.98328668,0.0002269,70.002,9.503,278.075,82.0151,-6.1376e-05,-8.25e-06,0.0,0 STARLINK-5604,1 55420U 23014AF  23321.88104992 -.00000825  00000-0 -61376-4 0  9992,2 55420  70.0020   9.5030 0002269 278.0750  82.0151 14.98328668 46307,6950.197,96.107,573.639,570.485,0.0
55420.0,STARLINK-5604,PAYLOAD,2023-11-18 03:33:14,14.98328481,0.0002952,70.003,8.8303,271.4341,88.6479,3.33e-05,3.04e-06,0.0,0 STARLINK-5604,1 55420U 23014AF  23322.14808481  .00000304  00000-0  33300-4 0  9992,2 55420  70.0030   8.8303 0002952 271.4341  88.6479 14.98328481 45403,6950.198,96.107,574.114,570.011,0.0
55420.0,STARLINK-5604,PAYLOAD,2023-11-18 11:33:52,14.98361184,0.0002448,70.0029,7.9887,248.8696,111.2201,0.00040675,4.767e-05,0.0,0 STARLINK-5604,1 55420U 23014AF  23322.48185650  .00004767  00000-0  40675-3 0  9994,2 55420  70.0029   7.9887 0002448 248.8696 111.2201 14.98361184 45457,6950.096,96.105,573.663,570.26,0.0
55420.0,STARLINK-5604,PAYLOAD,2023-11-18 13:10:07,14.98263449,0.0002447,70.002,7.8199,264.4461,95.6419,-0.00069855,-8.403e-05,0.0,0 STARLINK-5604,1 55420U 23014AF  23322.54870203 -.00008403  00000-0 -69855-3 0  9990,2 55420  70.0020   7.8199 0002447 264.4461  95.6419 14.98263449 46403,6950.399,96.111,573.964,570.563,0.0
55420.0,STARLINK-5604,PAYLOAD,2023-11-19 03:35:14,14.98339421,0.0002457,70.0016,6.3046,269.2983,90.7894,0.00014901,1.686e-05,0.0,0 STARLINK-5604,1 55420U 23014AF  23323.14947563  .00001686  00000-0  14901-3 0  9997,2 55420  70.0016   6.3046 0002457 269.2983  90.7894 14.98339421 45558,6950.164,96.106,573.736,570.321,0.0
55420.0,STARLINK-5604,PAYLOAD,2023-11-19 11:35:56,14.98340102,0.0002453,70.0025,5.4636,261.1745,98.9136,-0.0005361,-6.485e-05,0.0,0 STARLINK-5604,1 55420U 23014AF  23323.48329074 -.00006485  00000-0 -53610-3 0  9999,2 55420  70.0025   5.4636 0002453 261.1745  98.9136 14.98340102 45609,6950.162,96.106,573.732,570.322,0.0
55420.0,STARLINK-5604,PAYLOAD,2023-11-19 13:12:05,14.98328859,0.000258,70.0024,5.2952,267.8587,92.2277,-0.00064611,-7.793e-05,0.0,0 STARLINK-5604,1 55420U 23014AF  23323.55005919 -.00007793  00000-0 -64611-3 0  9992,2 55420  70.0024   5.2952 0002580 267.8587  92.2277 14.98328859 46558,6950.196,96.107,573.855,570.268,0.0
55420.0,STARLINK-5604,PAYLOAD,2023-11-20 03:37:14,14.98362029,0.0002217,70.0022,3.7801,281.1447,78.9463,0.00026801,3.109e-05,0.0,0 STARLINK-5604,1 55420U 23014AF  23324.15086120  .00003109  00000-0  26801-3 0  9996,2 55420  70.0022   3.7801 0002217 281.1447  78.9463 14.98362029 45704,6950.094,96.105,573.5,570.418,0.0
55420.0,STARLINK-5604,PAYLOAD,2023-11-20 08:25:42,14.98310657,0.0001885,70.0007,3.2742,257.2953,102.7995,-0.00021872,-2.7e-05,0.0,0 STARLINK-5604,1 55420U 23014AF  23324.35118225 -.00002700  00000-0 -21872-3 0  9991,2 55420  70.0007   3.2742 0001885 257.2953 102.7995 14.98310657 45731,6950.253,96.108,573.428,570.808,0.0
55420.0,STARLINK-5604,PAYLOAD,2023-11-20 13:14:03,14.98370317,0.0002244,70.0009,2.7694,278.8087,81.2818,-0.00058065,-7.021e-05,0.0,0 STARLINK-5604,1 55420U 23014AF  23324.55143145 -.00007021  00000-0 -58065-3 0  9997,2 55420  70.0009   2.7694 0002244 278.8087  81.2818 14.98370317 46702,6950.068,96.104,573.493,570.374,0.0
55420.0,STARLINK-5604,PAYLOAD,2023-11-20 19:38:36,14.98349119,0.0002981,70.0009,2.0959,274.6331,85.4487,-0.00028041,-3.439e-05,0.0,0 STARLINK-5604,1 55420U 23014AF  23324.81847535 -.00003439  00000-0 -28041-3 0  9990,2 55420  70.0009   2.0959 0002981 274.6331  85.4487 14.98349119 45807,6950.134,96.106,574.071,569.927,0.0
55420.0,STARLINK-5604,PAYLOAD,2023-11-21 03:39:16,14.98338244,0.000252,70.0011,1.2546,265.6085,94.4786,-0.00012178,-1.546e-05,0.0,0 STARLINK-5604,1 55420U 23014AF  23325.15227951 -.00001546  00000-0 -12178-3 0  9993,2 55420  70.0011   1.2546 0002520 265.6085  94.4786 14.98338244 45852,6950.167,96.106,573.784,570.281,0.0
55420.0,STARLINK-5604,PAYLOAD,2023-11-21 10:03:46,14.98369178,0.0002238,70.0009,0.5807,259.567,100.5237,0.00042085,4.937e-05,0.0,0 STARLINK-5604,1 55420U 23014AF  23325.41928471  .00004937  00000-0  42085-3 0  9992,2 55420  70.0009   0.5807 0002238 259.5670 100.5237 14.98369178 45893,6950.072,96.104,573.492,570.381,0.0
55420.0,STARLINK-5604,PAYLOAD,2023-11-21 13:16:06,14.98308008,0.0002303,70.0009,0.2442,275.8354,84.2543,-0.00027787,-3.405e-05,0.0,0 STARLINK-5604,1 55420U 23014AF  23325.55285675 -.00003405  00000-0 -27787-3 0  9992,2 55420  70.0009   0.2442 0002303 275.8354  84.2543 14.98308008 46858,6950.261,96.108,573.727,570.525,0.0
55420.0,STARLINK-5604,PAYLOAD,2023-11-21 21:16:45,14.9833245,0.0003064,70.0007,359.4026,274.828,85.253,-2.2279e-05,-3.59e-06,0.0,0 STARLINK-5604,1 55420U 23014AF  23325.88663288 -.00000359  00000-0 -22279-4 0  9995,2 55420  70.0007 359.4026 0003064 274.8280  85.2530 14.98332450 46906,6950.185,96.107,574.18,569.921,0.0
55420.0,STARLINK-5604,PAYLOAD,2023-11-22 03:41:17,14.98328978,0.0002427,70.0004,358.7298,259.8919,100.1966,-3.3078e-05,-4.88e-06,0.0,0 STARLINK-5604,1 55420U 23014AF  23326.15367560 -.00000488  00000-0 -33078-4 0  9992,2 55420  70.0004 358.7298 0002427 259.8919 100.1966 14.98328978 46001,6950.196,96.107,573.748,570.374,0.0
55420.0,STARLINK-5604,PAYLOAD,2023-11-22 11:41:58,14.98328063,0.0002584,70.0006,357.8877,274.7551,85.3313,-2.4664e-05,-3.87e-06,0.0,0 STARLINK-5604,1 55420U 23014AF  23326.48747725 -.00000387  00000-0 -24664-4 0  9992,2 55420  70.0006 357.8877 0002584 274.7551  85.3313 14.98328063 46991,6950.199,96.107,573.86,570.268,0.0
55420.0,STARLINK-5604,PAYLOAD,2023-11-23 03:43:19,14.98320347,0.0002811,70.0003,356.2032,271.5534,88.5303,-7.2139e-05,-9.53e-06,0.0,0 STARLINK-5604,1 55420U 23014AF  23327.15508408 -.00000953  00000-0 -72139-4 0  9999,2 55420  70.0003 356.2032 0002811 271.5534  88.5303 14.98320347 46152,6950.223,96.108,574.041,570.134,0.0
55420.0,STARLINK-5604,PAYLOAD,2023-11-23 11:43:59,14.9833225,0.0002531,70.0005,355.3626,264.4703,95.6167,-0.0002085,-2.58e-05,0.0,0 STARLINK-5604,1 55420U 23014AF  23327.48888124 -.00002580  00000-0 -20850-3 0  9991,2 55420  70.0005 355.3626 0002531 264.4703  95.6167 14.98332250 46200,6950.186,96.107,573.81,570.292,0.0
55420.0,STARLINK-5604,PAYLOAD,2023-11-24 11:46:00,14.98324331,0.0002532,70.0003,352.8369,270.8276,89.2593,5.8556e-05,6.06e-06,0.0,0 STARLINK-5604,1 55420U 23014AF  23328.49028207  .00000606  00000-0  58556-4 0  9991,2 55420  70.0003 352.8369 0002532 270.8276  89.2593 14.98324331 46350,6950.21,96.107,573.835,570.316,0.0
55420.0,STARLINK-5604,PAYLOAD,2023-11-25 11:48:00,14.98326388,0.0002429,70.0002,350.3124,269.2688,90.8192,0.0002478,2.865e-05,0.0,0 STARLINK-5604,1 55420U 23014AF  23329.49167781  .00002865  00000-0  24780-3 0  9993,2 55420  70.0002 350.3124 0002429 269.2688  90.8192 14.98326388 47443,6950.204,96.107,573.757,570.381,0.0
55420.0,STARLINK-5604,PAYLOAD,2023-11-26 11:50:01,14.9833456,0.0002378,70.001,347.7887,260.6157,99.4734,9.3439e-05,1.022e-05,0.0,0 STARLINK-5604,1 55420U 23014AF  23330.49307353  .00001022  00000-0  93439-4 0  9998,2 55420  70.0010 347.7887 0002378 260.6157  99.4734 14.98334560 46657,6950.179,96.107,573.697,570.391,0.0
55420.0,STARLINK-5604,PAYLOAD,2023-11-27 03:51:23,14.98320274,0.0002254,70.0037,346.1123,233.8175,126.2776,-0.00011847,-1.506e-05,0.0,0 STARLINK-5604,1 55420U 23014AF  23331.16068999 -.00001506  00000-0 -11847-3 0  9994,2 55420  70.0037 346.1123 0002254 233.8175 126.2776 14.98320274 46750,6950.223,96.108,573.655,570.521,0.0
55420.0,STARLINK-5604,PAYLOAD,2023-11-27 11:52:04,14.98312631,0.0002264,70.0014,345.2645,256.1166,103.9742,-0.00021607,-2.669e-05,0.0,0 STARLINK-5604,1 55420U 23014AF  23331.49449989 -.00002669  00000-0 -21607-3 0  9998,2 55420  70.0014 345.2645 0002264 256.1166 103.9742 14.98312631 46802,6950.247,96.108,573.685,570.538,0.0
55420.0,STARLINK-5604,PAYLOAD,2023-11-28 02:17:16,14.98324181,0.0002419,70.0021,343.7517,258.8478,101.2409,-7.2496e-05,-9.58e-06,0.0,0 STARLINK-5604,1 55420U 23014AF  23332.09533112 -.00000958  00000-0 -72496-4 0  9999,2 55420  70.0021 343.7517 0002419 258.8478 101.2409 14.98324181 46891,6950.211,96.107,573.757,570.395,0.0
55420.0,STARLINK-5604,PAYLOAD,2023-11-28 10:17:56,14.98326361,0.0002186,70.0015,342.9084,250.2382,109.8542,-3.8583e-05,-5.53e-06,0.0,0 STARLINK-5604,1 55420U 23014AF  23332.42912967 -.00000553  00000-0 -38583-4 0  9995,2 55420  70.0015 342.9084 0002186 250.2382 109.8542 14.98326361 47889,6950.204,96.107,573.588,570.55,0.0
55420.0,STARLINK-5604,PAYLOAD,2023-11-29 03:55:24,14.98326122,0.0002412,70.0013,341.0572,259.2433,100.8455,0.0002465,2.849e-05,0.0,0 STARLINK-5604,1 55420U 23014AF  23333.16348190  .00002849  00000-0  24650-3 0  9995,2 55420  70.0013 341.0572 0002412 259.2433 100.8455 14.98326122 47055,6950.205,96.107,573.746,570.393,0.0
55420.0,STARLINK-5604,PAYLOAD,2023-11-29 10:19:56,14.98324492,0.0002378,70.0013,340.3825,272.9464,87.1423,0.00037735,4.412e-05,0.0,0 STARLINK-5604,1 55420U 23014AF  23333.43052011  .00004412  00000-0  37735-3 0  9995,2 55420  70.0013 340.3825 0002378 272.9464  87.1423 14.98324492 48034,6950.21,96.107,573.728,570.422,0.0
55420.0,STARLINK-5604,PAYLOAD,2023-11-30 03:57:26,14.98330022,0.0002518,70.0026,338.5355,265.0029,95.0842,3.2015e-05,2.89e-06,0.0,0 STARLINK-5604,1 55420U 23014AF  23334.16488459  .00000289  00000-0  32015-4 0  9990,2 55420  70.0026 338.5355 0002518 265.0029  95.0842 14.98330022 47208,6950.193,96.107,573.808,570.308,0.0
